NORAD_CAT_ID,OBJECT_NAME,OBJECT_TYPE,EPOCH,MEAN_MOTION,ECCENTRICITY,INCLINATION,RA_OF_ASC_NODE,ARG_OF_PERICENTER,MEAN_ANOMALY,BSTAR,MEAN_MOTION_DOT,MEAN_MOTION_DDOT,TLE_LINE0,TLE_LINE1,TLE_LINE2,SEMIMAJOR_AXIS,PERIOD,APOGEE,PERIGEE,DECAYED
49134.0,STARLINK-3078,PAYLOAD,2024-03-21 18:45:13,14.98335319,0.0002823,69.9995,304.5622,261.1671,98.9168,2.7136e-07,-9e-07,0.0,0 STARLINK-3078,1 49134U 21082E   24081.78140949 -.00000090  00000-0  27136-6 0  9996,2 49134  69.9995 304.5622 0002823 261.1671  98.9168 14.98335319139641,6950.176,96.107,574.003,570.079,0.0
49134.0,STARLINK-3078,PAYLOAD,2024-03-21 21:57:29,14.98336445,0.0002795,69.9995,304.2255,260.6844,99.3999,1.6898e-05,1.09e-06,0.0,0 STARLINK-3078,1 49134U 21082E   24081.91492792  .00000109  00000-0  16898-4 0  9998,2 49134  69.9995 304.2255 0002795 260.6844  99.3999 14.98336445139664,6950.173,96.107,573.981,570.095,0.0
49134.0,STARLINK-3078,PAYLOAD,2024-03-22 01:09:45,14.98338086,0.000278,69.9994,303.8884,261.2815,98.803,3.7726e-05,3.57e-06,0.0,0 STARLINK-3078,1 49134U 21082E   24082.04844586  .00000357  00000-0  37726-4 0  9993,2 49134  69.9994 303.8884 0002780 261.2815  98.8030 14.98338086139680,6950.168,96.106,573.965,570.101,0.0
49134.0,STARLINK-3078,PAYLOAD,2024-03-22 20:23:22,14.98328771,0.0002838,69.9993,301.8681,260.6864,99.3974,8.0878e-05,8.72e-06,0.0,0 STARLINK-3078,1 49134U 21082E   24082.84956897  .00000872  00000-0  80878-4 0  9998,2 49134  69.9993 301.8681 0002838 260.6864  99.3974 14.98328771139800,6950.197,96.107,574.034,570.089,0.0
49134.0,STARLINK-3078,PAYLOAD,2024-03-22 21:59:30,14.98328842,0.0002837,69.9993,301.6998,260.9469,99.1369,7.985e-05,8.6e-06,0.0,0 STARLINK-3078,1 49134U 21082E   24082.91632902  .00000860  00000-0  79850-4 0  9999,2 49134  69.9993 301.6998 0002837 260.9469  99.1369 14.98328842139818,6950.196,96.107,574.033,570.09,0.0
49134.0,STARLINK-3078,PAYLOAD,2024-03-23 20:25:24,14.98329544,0.0003092,69.9982,299.3424,263.4875,96.5932,-6.5567e-05,-8.75e-06,0.0,0 STARLINK-3078,1 49134U 21082E   24083.85097262 -.00000875  00000-0 -65567-4 0  9995,2 49134  69.9982 299.3424 0003092 263.4875  96.5932 14.98329544139958,6950.194,96.107,574.208,569.91,0.0
49134.0,STARLINK-3078,PAYLOAD,2024-03-23 22:01:32,14.98329091,0.0003134,69.998,299.1736,268.4474,91.6326,-1.6995e-05,-2.96e-06,0.0,0 STARLINK-3078,1 49134U 21082E   24083.91773256 -.00000296  00000-0 -16995-4 0  9994,2 49134  69.9980 299.1736 0003134 268.4474  91.6326 14.98329091139968,6950.196,96.107,574.239,569.883,0.0
49134.0,STARLINK-3078,PAYLOAD,2024-03-24 07:38:20,14.98336892,0.0003032,69.9978,298.1639,274.5413,85.5399,-6.3611e-05,-8.52e-06,0.0,0 STARLINK-3078,1 49134U 21082E   24084.31828823 -.00000852  00000-0 -63611-4 0  9995,2 49134  69.9978 298.1639 0003032 274.5413  85.5399 14.98336892140022,6950.172,96.107,574.144,569.929,0.0
49134.0,STARLINK-3078,PAYLOAD,2024-03-24 22:03:32,14.98338511,0.0003171,69.9979,296.6488,273.0779,87.0017,6.3756e-05,6.68e-06,0.0,0 STARLINK-3078,1 49134U 21082E   24084.91912491  .00000668  00000-0  63756-4 0  9999,2 49134  69.9979 296.6488 0003171 273.0779  87.0017 14.98338511140115,6950.167,96.106,574.235,569.828,0.0
49134.0,STARLINK-3078,PAYLOAD,2024-03-25 20:29:23,14.98355434,0.0003403,69.9977,294.2913,270.6695,89.4074,0.00034562,4.036e-05,0.0,0 STARLINK-3078,1 49134U 21082E   24085.85374590  .00004036  00000-0  34562-3 0  9990,2 49134  69.9977 294.2913 0003403 270.6695  89.4074 14.98355434140255,6950.114,96.105,574.344,569.614,0.0
49134.0,STARLINK-3078,PAYLOAD,2024-03-25 22:05:30,14.9836071,0.0003446,70.0005,294.1233,270.469,89.6075,0.00053876,6.346e-05,0.0,0 STARLINK-3078,1 49134U 21082E   24085.92049683  .00006346  00000-0  53876-3 0  9995,2 49134  70.0005 294.1233 0003446 270.4690  89.6075 14.98360710140261,6950.098,96.105,574.358,569.568,0.0
49134.0,STARLINK-3078,PAYLOAD,2024-03-25 23:41:36,14.98389427,0.000347,69.9976,293.9552,268.9073,91.1689,0.00070344,8.323e-05,0.0,0 STARLINK-3078,1 49134U 21082E   24085.98723267  .00008323  00000-0  70344-3 0  9994,2 49134  69.9976 293.9552 0003470 268.9073  91.1689 14.98389427140276,6950.009,96.103,574.286,569.462,0.0
49134.0,STARLINK-3078,PAYLOAD,2024-03-26 12:30:45,14.98338977,0.0002068,69.9978,292.6086,276.5045,83.5879,8.8111e-05,9.59e-06,0.0,0 STARLINK-3078,1 49134U 21082E   24086.52135801  .00000959  00000-0  88111-4 0  9995,2 49134  69.9978 292.6086 0002068 276.5045  83.5879 14.98338977140351,6950.165,96.106,573.467,570.593,0.0
49134.0,STARLINK-3078,PAYLOAD,2024-03-26 14:06:53,14.9833315,0.0002334,69.9991,292.4355,257.5622,102.5276,2.8176e-06,-5.9e-07,0.0,0 STARLINK-3078,1 49134U 21082E   24086.58812298 -.00000059  00000-0  28176-5 0  9991,2 49134  69.9991 292.4355 0002334 257.5622 102.5276 14.98333150140361,6950.183,96.107,573.67,570.426,0.0
49134.0,STARLINK-3078,PAYLOAD,2024-03-26 20:31:27,14.98312688,0.0002739,69.9985,291.7669,269.1562,90.9283,-0.00021491,-2.655e-05,0.0,0 STARLINK-3078,1 49134U 21082E   24086.85518238 -.00002655  00000-0 -21491-3 0  9994,2 49134  69.9985 291.7669 0002739 269.1562  90.9283 14.98312688140401,6950.246,96.108,574.015,570.208,0.0
49134.0,STARLINK-3078,PAYLOAD,2024-03-26 22:07:35,14.98312518,0.0002733,69.9985,291.5986,269.238,90.8466,-0.00021315,-2.634e-05,0.0,0 STARLINK-3078,1 49134U 21082E   24086.92194301 -.00002634  00000-0 -21315-3 0  9995,2 49134  69.9985 291.5986 0002733 269.2380  90.8466 14.98312518140419,6950.247,96.108,574.011,570.212,0.0
49134.0,STARLINK-3078,PAYLOAD,2024-03-27 12:32:47,14.98320765,0.0003262,69.9975,290.0832,268.3754,91.7032,-1.6527e-05,-2.9e-06,0.0,0 STARLINK-3078,1 49134U 21082E   24087.52277492 -.00000290  00000-0 -16527-4 0  9991,2 49134  69.9975 290.0832 0003262 268.3754  91.7032 14.98320765140507,6950.221,96.108,574.354,569.819,0.0
49134.0,STARLINK-3078,PAYLOAD,2024-03-27 14:08:55,14.98322262,0.0003282,69.9975,289.9153,269.1705,90.9078,-4.2617e-06,-1.44e-06,0.0,0 STARLINK-3078,1 49134U 21082E   24087.58953400 -.00000144  00000-0 -42617-5 0  9995,2 49134  69.9975 289.9153 0003282 269.1705  90.9078 14.98322262140513,6950.217,96.107,574.363,569.801,0.0
49134.0,STARLINK-3078,PAYLOAD,2024-03-27 22:09:35,14.98325728,0.0003164,69.9979,289.0735,269.2842,90.7954,4.5874e-05,4.54e-06,0.0,0 STARLINK-3078,1 49134U 21082E   24087.92333203  .00000454  00000-0  45874-4 0  9995,2 49134  69.9979 289.0735 0003164 269.2842  90.7954 14.98325728140562,6950.206,96.107,574.27,569.872,0.0
49134.0,STARLINK-3078,PAYLOAD,2024-03-27 23:45:43,14.98326584,0.0003148,69.998,288.9053,269.1783,90.9015,5.8078e-05,6e-06,0.0,0 STARLINK-3078,1 49134U 21082E   24087.99009145  .00000600  00000-0  58078-4 0  9990,2 49134  69.9980 288.9053 0003148 269.1783  90.9015 14.98326584140572,6950.203,96.107,574.256,569.881,0.0
49134.0,STARLINK-3078,PAYLOAD,2024-03-28 06:10:15,14.98358095,0.0003265,69.998,288.2321,268.8197,91.2588,-0.00044079,-5.352e-05,0.0,0 STARLINK-3078,1 49134U 21082E   24088.25712105 -.00005352  00000-0 -44079-3 0  9993,2 49134  69.9980 288.2321 0003265 268.8197  91.2588 14.98358095140614,6950.106,96.105,574.24,569.702,0.0
49134.0,STARLINK-3078,PAYLOAD,2024-03-28 22:11:36,14.98324541,0.0003263,69.9974,286.5481,272.3498,87.7288,0.00026869,3.114e-05,0.0,0 STARLINK-3078,1 49134U 21082E   24088.92472702  .00003114  00000-0  26869-3 0  9992,2 49134  69.9974 286.5481 0003263 272.3498  87.7288 14.98324541140714,6950.21,96.107,574.343,569.807,0.0
49134.0,STARLINK-3078,PAYLOAD,2024-03-29 12:36:49,14.98328071,0.0002948,69.9985,285.0335,271.8717,88.2104,4.2561e-05,4.15e-06,0.0,0 STARLINK-3078,1 49134U 21082E   24089.52557336  .00000415  00000-0  42561-4 0  9995,2 49134  69.9985 285.0335 0002948 271.8717  88.2104 14.98328071140800,6950.199,96.107,574.113,570.015,0.0
49134.0,STARLINK-3078,PAYLOAD,2024-03-29 22:13:37,14.98329807,0.0002951,69.9985,284.0238,270.6574,89.4247,5.5346e-05,5.67e-06,0.0,0 STARLINK-3078,1 49134U 21082E   24089.92613210  .00000567  00000-0  55346-4 0  9996,2 49134  69.9985 284.0238 0002951 270.6574  89.4247 14.98329807140868,6950.193,96.107,574.109,570.007,0.0
49134.0,STARLINK-3078,PAYLOAD,2024-03-30 14:14:58,14.98334175,0.0002923,69.9984,282.3406,270.6074,89.475,-2.4721e-05,-3.88e-06,0.0,0 STARLINK-3078,1 49134U 21082E   24090.59373014 -.00000388  00000-0 -24721-4 0  9992,2 49134  69.9984 282.3406 0002923 270.6074  89.4750 14.98334175140963,6950.18,96.107,574.077,570.013,0.0
49134.0,STARLINK-3078,PAYLOAD,2024-03-30 22:15:38,14.98330135,0.0002918,70.0003,281.4995,270.2794,89.803,2.4172e-05,1.95e-06,0.0,0 STARLINK-3078,1 49134U 21082E   24090.92753104  .00000195  00000-0  24172-4 0  9995,2 49134  70.0003 281.4995 0002918 270.2794  89.8030 14.98330135141014,6950.192,96.107,574.086,570.029,0.0
49134.0,STARLINK-3078,PAYLOAD,2024-03-31 14:16:59,14.98327117,0.0003014,69.9989,279.8152,270.6057,89.4756,3.2276e-05,2.92e-06,0.0,0 STARLINK-3078,1 49134U 21082E   24091.59513214  .00000292  00000-0  32276-4 0  9997,2 49134  69.9989 279.8152 0003014 270.6057  89.4756 14.98327117141112,6950.202,96.107,574.162,569.972,0.0
49134.0,STARLINK-3078,PAYLOAD,2024-03-31 22:17:39,14.9832942,0.0003038,69.999,278.9737,271.4315,88.6496,1.8638e-05,1.29e-06,0.0,0 STARLINK-3078,1 49134U 21082E   24091.92893159  .00000129  00000-0  18638-4 0  9998,2 49134  69.9990 278.9737 0003038 271.4315  88.6496 14.98329420141161,6950.195,96.107,574.171,569.948,0.0
49134.0,STARLINK-3078,PAYLOAD,2024-04-01 14:18:59,14.98333792,0.0003075,69.9987,277.2903,271.5351,88.5456,6.412e-05,6.72e-06,0.0,0 STARLINK-3078,1 49134U 21082E   24092.59652723  .00000672  00000-0  64120-4 0  9992,2 49134  69.9987 277.2903 0003075 271.5351  88.5456 14.98333792141269,6950.181,96.107,574.183,569.909,0.0
49134.0,STARLINK-3078,PAYLOAD,2024-04-01 22:19:39,14.98336825,0.0003052,69.9988,276.4485,271.5002,88.5807,9.5328e-05,1.045e-05,0.0,0 STARLINK-3078,1 49134U 21082E   24092.93032372  .00001045  00000-0  95328-4 0  9991,2 49134  69.9988 276.4485 0003052 271.5002  88.5807 14.98336825141310,6950.172,96.107,574.158,569.916,0.0
